start=new Date('2022-12-21T00:00:00.000Z').valueOf();
sats=[{"INCLINATION":"53.2145","APOAPSIS":"350.336","PERIAPSIS":"349.270","CLASSIFICATION_TYPE":"U","OBJECT_TYPE":"PAYLOAD","ELEMENT_SET_NO":"999","ECCENTRICITY":"0.00007920","OBJECT_NAME":"STARLINK-5209","MEAN_ELEMENT_THEORY":"SGP4","REV_AT_EPOCH":"1018","OBJECT_ID":"2022-136L","SEMIMAJOR_AXIS":"6727.938","TLE_LINE1":"1 54061U 22136L   22354.87318298 -.00018010  00000-0 -12427-3 0  9993","PERIOD":"91.534","COUNTRY_CODE":"US","RCS_SIZE":"LARGE","ARG_OF_PERICENTER":"89.0000","SITE":"AFETR","MEAN_MOTION":"15.73184969","REF_FRAME":"TEME","FILE":"3714255","TIME_SYSTEM":"UTC","GP_ID":"221047328","NORAD_CAT_ID":"54061","LAUNCH_DATE":"2022-10-20","RA_OF_ASC_NODE":"202.4633","DECAY_DATE":null,"MEAN_ANOMALY":"271.1111","EPHEMERIS_TYPE":"0","MEAN_MOTION_DOT":"-0.00018010","EPOCH":"2022-12-20T20:57:23.009472","BSTAR":"-0.00012427000000","TLE_LINE2":"2 54061  53.2145 202.4633 0000792  89.0000 271.1111 15.73184969 10180","CENTER_NAME":"EARTH","MEAN_MOTION_DDOT":"0.0000000000000"},{"OBJECT_TYPE":"PAYLOAD","ELEMENT_SET_NO":"999","ECCENTRICITY":"0.00016270","OBJECT_NAME":"STARLINK-5170","CLASSIFICATION_TYPE":"U","INCLINATION":"53.2174","APOAPSIS":"540.896","PERIAPSIS":"538.645","SITE":"AFETR","ARG_OF_PERICENTER":"130.6567","PERIOD":"95.438","TLE_LINE1":"1 54062U 22136M   22354.05597787  .00001079  00000-0  85877-4 0  9991","COUNTRY_CODE":"US","RCS_SIZE":"LARGE","OBJECT_ID":"2022-136M","REV_AT_EPOCH":"936","SEMIMAJOR_AXIS":"6917.905","MEAN_ELEMENT_THEORY":"SGP4","GP_ID":"221029493","NORAD_CAT_ID":"54062","LAUNCH_DATE":"2022-10-20","TIME_SYSTEM":"UTC","FILE":"3713130","REF_FRAME":"TEME","MEAN_MOTION":"15.08831877","TLE_LINE2":"2 54062  53.2174 221.7129 0001627 130.6567 229.4567 15.08831877  9360","CENTER_NAME":"EARTH","MEAN_MOTION_DDOT":"0.0000000000000","MEAN_ANOMALY":"229.4567","EPHEMERIS_TYPE":"0","MEAN_MOTION_DOT":"0.00001079","EPOCH":"2022-12-20T01:20:36.487968","BSTAR":"0.00008587700000","RA_OF_ASC_NODE":"221.7129","DECAY_DATE":null},{"INCLINATION":"53.2167","APOAPSIS":"541.162","PERIAPSIS":"538.347","CLASSIFICATION_TYPE":"U","OBJECT_TYPE":"PAYLOAD","ECCENTRICITY":"0.00020350","ELEMENT_SET_NO":"999","OBJECT_NAME":"STARLINK-5225","MEAN_ELEMENT_THEORY":"SGP4","REV_AT_EPOCH":"936","OBJECT_ID":"2022-136N","SEMIMAJOR_AXIS":"6917.889","PERIOD":"95.438","TLE_LINE1":"1 54063U 22136N   22354.05229073  .00001875  00000-0  13588-3 0  9995","COUNTRY_CODE":"US","RCS_SIZE":"LARGE","SITE":"AFETR","ARG_OF_PERICENTER":"51.9443","MEAN_MOTION":"15.08837028","REF_FRAME":"TEME","FILE":"3713130","TIME_SYSTEM":"UTC","GP_ID":"221030133","NORAD_CAT_ID":"54063","LAUNCH_DATE":"2022-10-20","RA_OF_ASC_NODE":"221.6863","DECAY_DATE":null,"MEAN_ANOMALY":"308.1732","EPHEMERIS_TYPE":"0","MEAN_MOTION_DOT":"0.00001875","BSTAR":"0.00013588000000","EPOCH":"2022-12-20T01:15:17.919072","TLE_LINE2":"2 54063  53.2167 221.6863 0002035  51.9443 308.1732 15.08837028  9362","CENTER_NAME":"EARTH","MEAN_MOTION_DDOT":"0.0000000000000"},{"INCLINATION":"53.2166","APOAPSIS":"351.016","PERIAPSIS":"348.504","OBJECT_TYPE":"PAYLOAD","ELEMENT_SET_NO":"999","ECCENTRICITY":"0.00018670","OBJECT_NAME":"STARLINK-5172","CLASSIFICATION_TYPE":"U","REV_AT_EPOCH":"958","OBJECT_ID":"2022-136P","SEMIMAJOR_AXIS":"6727.895","MEAN_ELEMENT_THEORY":"SGP4","ARG_OF_PERICENTER":"28.1529","SITE":"AFETR","PERIOD":"91.533","TLE_LINE1":"1 54064U 22136P   22354.30245817 -.00000988  00000-0 -26163-5 0  9999","COUNTRY_CODE":"US","RCS_SIZE":"LARGE","REF_FRAME":"TEME","MEAN_MOTION":"15.73199992","GP_ID":"221030773","NORAD_CAT_ID":"54064","LAUNCH_DATE":"2022-10-20","TIME_SYSTEM":"UTC","FILE":"3713130","RA_OF_ASC_NODE":"207.4986","DECAY_DATE":null,"TLE_LINE2":"2 54064  53.2166 207.4986 0001867  28.1529 331.9592 15.73199992  9588","CENTER_NAME":"EARTH","MEAN_MOTION_DDOT":"0.0000000000000","MEAN_ANOMALY":"331.9592","EPHEMERIS_TYPE":"0","MEAN_MOTION_DOT":"-0.00000988","BSTAR":"-0.00000261630000","EPOCH":"2022-12-20T07:15:32.385888"},{"REF_FRAME":"TEME","MEAN_MOTION":"15.08839220","LAUNCH_DATE":"2022-10-20","NORAD_CAT_ID":"54065","GP_ID":"221047329","FILE":"3714255","TIME_SYSTEM":"UTC","DECAY_DATE":null,"RA_OF_ASC_NODE":"218.0749","MEAN_MOTION_DDOT":"0.0000000000000","CENTER_NAME":"EARTH","TLE_LINE2":"2 54065  53.2172 218.0749 0001923  48.8113 311.3045 15.08839220  9962","EPOCH":"2022-12-20T20:09:19.221120","MEAN_MOTION_DOT":"-0.00001545","BSTAR":"-0.00007901000000","EPHEMERIS_TYPE":"0","MEAN_ANOMALY":"311.3045","PERIAPSIS":"538.417","APOAPSIS":"541.078","INCLINATION":"53.2172","OBJECT_NAME":"STARLINK-5187","ELEMENT_SET_NO":"999","ECCENTRICITY":"0.00019230","OBJECT_TYPE":"PAYLOAD","CLASSIFICATION_TYPE":"U","SEMIMAJOR_AXIS":"6917.883","OBJECT_ID":"2022-136Q","REV_AT_EPOCH":"996","MEAN_ELEMENT_THEORY":"SGP4","ARG_OF_PERICENTER":"48.8113","SITE":"AFETR","RCS_SIZE":"LARGE","COUNTRY_CODE":"US","PERIOD":"95.438","TLE_LINE1":"1 54065U 22136Q   22354.83980580 -.00001545  00000-0 -79010-4 0  9999"},{"OBJECT_TYPE":"PAYLOAD","ECCENTRICITY":"0.00014160","ELEMENT_SET_NO":"999","OBJECT_NAME":"STARLINK-5151","CLASSIFICATION_TYPE":"U","INCLINATION":"53.2161","APOAPSIS":"540.705","PERIAPSIS":"538.746","ARG_OF_PERICENTER":"66.6568","SITE":"AFETR","PERIOD":"95.437","TLE_LINE1":"1 54066U 22136R   22354.84348565  .00001387  00000-0  10520-3 0  9994","COUNTRY_CODE":"US","RCS_SIZE":"LARGE","OBJECT_ID":"2022-136R","REV_AT_EPOCH":"996","SEMIMAJOR_AXIS":"6917.861","MEAN_ELEMENT_THEORY":"SGP4","GP_ID":"221047319","LAUNCH_DATE":"2022-10-20","NORAD_CAT_ID":"54066","TIME_SYSTEM":"UTC","FILE":"3714255","REF_FRAME":"TEME","MEAN_MOTION":"15.08846390","TLE_LINE2":"2 54066  53.2161 218.0977 0001416  66.6568 293.4573 15.08846390  9965","CENTER_NAME":"EARTH","MEAN_MOTION_DDOT":"0.0000000000000","MEAN_ANOMALY":"293.4573","EPHEMERIS_TYPE":"0","MEAN_MOTION_DOT":"0.00001387","BSTAR":"0.00010520000000","EPOCH":"2022-12-20T20:14:37.160160","RA_OF_ASC_NODE":"218.0977","DECAY_DATE":null},{"MEAN_ELEMENT_THEORY":"SGP4","SEMIMAJOR_AXIS":"6917.862","OBJECT_ID":"2022-136S","REV_AT_EPOCH":"996","COUNTRY_CODE":"US","RCS_SIZE":"LARGE","TLE_LINE1":"1 54067U 22136S   22354.83243122 -.00000578  00000-0 -18206-4 0  9990","PERIOD":"95.437","SITE":"AFETR","ARG_OF_PERICENTER":"40.5666","PERIAPSIS":"538.372","INCLINATION":"53.2167","APOAPSIS":"541.081","CLASSIFICATION_TYPE":"U","ECCENTRICITY":"0.00019580","ELEMENT_SET_NO":"999","OBJECT_NAME":"STARLINK-5174","OBJECT_TYPE":"PAYLOAD","DECAY_DATE":null,"RA_OF_ASC_NODE":"218.0300","EPHEMERIS_TYPE":"0","BSTAR":"-0.00001820600000","MEAN_MOTION_DOT":"-0.00000578","EPOCH":"2022-12-20T19:58:42.057408","MEAN_ANOMALY":"319.5472","CENTER_NAME":"EARTH","MEAN_MOTION_DDOT":"0.0000000000000","TLE_LINE2":"2 54067  53.2167 218.0300 0001958  40.5666 319.5472 15.08846039  9961","MEAN_MOTION":"15.08846039","REF_FRAME":"TEME","TIME_SYSTEM":"UTC","FILE":"3714256","NORAD_CAT_ID":"54067","LAUNCH_DATE":"2022-10-20","GP_ID":"221047334"},{"PERIAPSIS":"538.707","INCLINATION":"53.2178","APOAPSIS":"540.790","CLASSIFICATION_TYPE":"U","ECCENTRICITY":"0.00015060","ELEMENT_SET_NO":"999","OBJECT_NAME":"STARLINK-5222","OBJECT_TYPE":"PAYLOAD","MEAN_ELEMENT_THEORY":"SGP4","SEMIMAJOR_AXIS":"6917.883","REV_AT_EPOCH":"996","OBJECT_ID":"2022-136T","COUNTRY_CODE":"US","RCS_SIZE":"LARGE","PERIOD":"95.438","TLE_LINE1":"1 54068U 22136T   22354.83611738  .00000708  00000-0  62548-4 0  9994","SITE":"AFETR","ARG_OF_PERICENTER":"66.1289","MEAN_MOTION":"15.08839033","REF_FRAME":"TEME","FILE":"3714256","TIME_SYSTEM":"UTC","NORAD_CAT_ID":"54068","LAUNCH_DATE":"2022-10-20","GP_ID":"221046907","DECAY_DATE":null,"RA_OF_ASC_NODE":"218.0470","EPHEMERIS_TYPE":"0","MEAN_MOTION_DOT":"0.00000708","BSTAR":"0.00006254800000","EPOCH":"2022-12-20T20:04:00.541632","MEAN_ANOMALY":"293.9861","CENTER_NAME":"EARTH","MEAN_MOTION_DDOT":"0.0000000000000","TLE_LINE2":"2 54068  53.2178 218.0470 0001506  66.1289 293.9861 15.08839033  9969"},{"MEAN_ANOMALY":"313.8898","MEAN_MOTION_DOT":"0.00000796","EPOCH":"2022-12-20T19:42:47.385792","BSTAR":"0.00006813000000","EPHEMERIS_TYPE":"0","TLE_LINE2":"2 54069  53.2148 217.9574 0001916  46.2252 313.8898 15.08845038  9968","MEAN_MOTION_DDOT":"0.0000000000000","CENTER_NAME":"EARTH","RA_OF_ASC_NODE":"217.9574","DECAY_DATE":null,"FILE":"3714311","TIME_SYSTEM":"UTC","GP_ID":"221048340","NORAD_CAT_ID":"54069","LAUNCH_DATE":"2022-10-20","MEAN_MOTION":"15.08845038","REF_FRAME":"TEME","PERIOD":"95.437","TLE_LINE1":"1 54069U 22136U   22354.82138178  .00000796  00000-0  68130-4 0  9996","RCS_SIZE":"LARGE","COUNTRY_CODE":"US","ARG_OF_PERICENTER":"46.2252","SITE":"AFETR","MEAN_ELEMENT_THEORY":"SGP4","REV_AT_EPOCH":"996","OBJECT_ID":"2022-136U","SEMIMAJOR_AXIS":"6917.865","CLASSIFICATION_TYPE":"U","OBJECT_TYPE":"PAYLOAD","OBJECT_NAME":"STARLINK-5223","ELEMENT_SET_NO":"999","ECCENTRICITY":"0.00019160","APOAPSIS":"541.055","INCLINATION":"53.2148","PERIAPSIS":"538.405"},{"MEAN_ANOMALY":"302.6478","EPHEMERIS_TYPE":"0","BSTAR":"0.00001374900000","MEAN_MOTION_DOT":"-0.00000069","EPOCH":"2022-12-20T19:54:46.632096","TLE_LINE2":"2 54070  53.2165 218.0139 0001608  57.4669 302.6478 15.08837866  9962","CENTER_NAME":"EARTH","MEAN_MOTION_DDOT":"0.0000000000000","RA_OF_ASC_NODE":"218.0139","DECAY_DATE":null,"FILE":"3714311","TIME_SYSTEM":"UTC","GP_ID":"221047839","LAUNCH_DATE":"2022-10-20","NORAD_CAT_ID":"54070","MEAN_MOTION":"15.08837866","REF_FRAME":"TEME","PERIOD":"95.438","TLE_LINE1":"1 54070U 22136V   22354.82970639 -.00000069  00000-0  13749-4 0  9994","COUNTRY_CODE":"US","RCS_SIZE":"LARGE","ARG_OF_PERICENTER":"57.4669","SITE":"AFETR","MEAN_ELEMENT_THEORY":"SGP4","REV_AT_EPOCH":"996","OBJECT_ID":"2022-136V","SEMIMAJOR_AXIS":"6917.887","CLASSIFICATION_TYPE":"U","OBJECT_TYPE":"PAYLOAD","ECCENTRICITY":"0.00016080","ELEMENT_SET_NO":"999","OBJECT_NAME":"STARLINK-5181","INCLINATION":"53.2165","APOAPSIS":"540.864","PERIAPSIS":"538.640"}];
